GALAXY 25               
1 24812C 97026A   22030.95703704  .00000088  00000-0  00000-0 0   305
2 24812   3.3533  85.1085 0003632 221.8823 233.8018  1.00269442    17
GALAXY 25               
1 24812C 97026A   22034.00000000  .00000088  00000-0  00000-0 0   348
2 24812   3.3584  85.0795 0003838 223.1276 251.0421  1.00270091    17
GALAXY 25           [PM]
1 24812C 97026A   22037.98232639  .00000088  00000-0  00000-0 0   376
2 24812   3.3695  78.5564 0003917 215.4008 262.8610  1.00270779    19
INTELSAT 5          [PM]
1 24916C 97046A   22023.00000000  .00000190  00000-0  00000-0 0   235
2 24916   6.9175  62.0694 0008212 174.2553 107.8046  1.00105390    15
INTELSAT 5              
1 24916C 97046A   22030.95703704  .00000205  00000-0  00000-0 0   303
2 24916   6.9364  62.0370 0005726 182.3220  87.7883  1.00119876    13
INTELSAT 5              
1 24916C 97046A   22034.00000000  .00000209  00000-0  00000-0 0   340
2 24916   6.9413  62.0083 0005768 181.0848 105.8939  1.00120360    11
GALAXY 11               
1 26038C 99071A   22031.00000000 -.00000072  00000-0  00000-0 0   310
2 26038   2.6693  89.6084 0000629  57.2337 250.2164  1.00269604    15
GALAXY 11               
1 26038C 99071A   22034.00000000 -.00000072  00000-0  00000-0 0   346
2 26038   2.6737  89.5781 0000700  92.5002 217.9316  1.00269765    15
INTELSAT 9              
1 26451C 00043A   22030.95703704 -.00000191  00000-0  00000-0 0   305
2 26451   6.9235  62.1820 0000918 140.7987 221.6652  1.00272447    10
INTELSAT 9          [PM]
1 26451C 00043A   22033.70658565 -.00000191  00000-0  00000-0 0   338
2 26451   6.9269  62.1679 0004044 201.8717  73.1860  1.00269737    12
INTELSAT 9              
1 26451C 00043A   22034.00000000 -.00000191  00000-0  00000-0 0   348
2 26451   6.9278  62.1446 0000846 163.8122 217.1509  1.00276049    11
INTELSAT 1R             
1 26608C 00072A   22031.00000000 -.00000047  00000-0  00000-0 0   318
2 26608   4.1008  81.3567 0001544 333.7885 232.1051  1.00270767    13
INTELSAT 1R             
1 26608C 00072A   22034.00000000 -.00000047  00000-0  00000-0 0   344
2 26608   4.1069  81.3110 0001247 331.3819 237.5056  1.00271404    18
INTELSAT 10         [PM]
1 26766C 01019A   22028.74108796  .00000127  00000-0  00000-0 0   287
2 26766   5.2514  74.5543 0003448 258.0356 239.9632  1.00268505    14
INTELSAT 10             
1 26766C 01019A   22030.95703704  .00000127  00000-0  00000-0 0   306
2 26766   5.2558  74.5489 0003915 242.3748 335.5272  1.00271787    10
INTELSAT 10             
1 26766C 01019A   22034.00000000  .00000127  00000-0  00000-0 0   349
2 26766   5.2608  74.5160 0003852 232.9057   3.4913  1.00271995    14
INTELSAT 901            
1 26824C 01024A   22030.95703704 -.00000455  00000-0  00000-0 0   302
2 26824   0.0538 257.0984 0001012  95.6439  94.4229  1.00270004    10
INTELSAT 901            
1 26824C 01024A   22034.00000000 -.00000108  00000-0  00000-0 0   340
2 26824   0.0510 270.8411 0000817  62.3269 132.4506  1.00269810    16
INTELSAT 902            
1 26900C 01039A   22030.95703704 -.00000192  00000-0  00000-0 0   301
2 26900   2.0651  90.5947 0002876 229.0105 104.9635  1.00270031    12
INTELSAT 902            
1 26900C 01039A   22034.00000000 -.00000192  00000-0  00000-0 0   344
2 26900   2.0695  90.5637 0002894 225.5373 126.9286  1.00271603    16
INTELSAT 902        [PM]
1 26900C 01039A   22038.29828704 -.00000192  00000-0  00000-0 0   382
2 26900   2.0822  77.6584 0002965 224.9344 252.0632  1.00273194    18
INTELSAT 904            
1 27380C 02007A   22030.95703704 -.00000123  00000-0  00000-0 0   304
2 27380   2.8976  87.4593 0002412 230.8023 126.9036  1.00271586    15
INTELSAT 904            
1 27380C 02007A   22034.00000000 -.00000123  00000-0  00000-0 0   347
2 27380   2.9024  87.4287 0002563 231.1658 145.0274  1.00271356    16
INTELSAT 904        [PM]
1 27380C 02007A   22036.82297454 -.00000123  00000-0  00000-0 0   362
2 27380   2.9089  87.3462 0003131 227.5452  87.7794  1.00272123    16
INTELSAT 905            
1 27438C 02027A   22030.95703704 -.00000094  00000-0  00000-0 0   307
2 27438   2.7199  88.2345 0002105 216.7578 145.1621  1.00272430    18
INTELSAT 905        [PM]
1 27438C 02027A   22031.75798611 -.00000094  00000-0  00000-0 0   318
2 27438   2.7209  88.2377 0002575 216.3540  74.7016  1.00271319    11
INTELSAT 905            
1 27438C 02027A   22034.00000000 -.00000094  00000-0  00000-0 0   340
2 27438   2.7248  88.2050 0002238 218.2204 162.1990  1.00272490    10
GALAXY 3C               
1 27445C 02030A   22031.00000000 -.00000235  00000-0  00000-0 0   313
2 27445   0.0431 265.8840 0001593  70.0989  59.1682  1.00269063    15
GALAXY 3C               
1 27445C 02030A   22034.00000000 -.00000064  00000-0  00000-0 0   349
2 27445   0.0028  23.3076 0001992 313.8627  60.9228  1.00267475    16
INTELSAT 906            
1 27513C 02041A   22030.95703704  .00000105  00000-0  00000-0 0   309
2 27513   1.7317  92.2049 0003245 239.9103 206.7023  1.00272016    16
INTELSAT 906        [PM]
1 27513C 02041A   22033.62101852  .00000105  00000-0  00000-0 0   335
2 27513   1.7361  92.1936 0003221 232.1315  96.1447  1.00270090    14
INTELSAT 906            
1 27513C 02041A   22034.00000000  .00000105  00000-0  00000-0 0   342
2 27513   1.7367  92.1918 0003279 237.1757 227.9090  1.00269946    14
GALAXY 12               
1 27715C 03013B   22030.95703704  .00000149  00000-0  00000-0 0   301
2 27715   2.9319  87.0465 0002060 238.6283  19.9825  1.00270753    18
GALAXY 12               
1 27715C 03013B   22034.00000000  .00000149  00000-0  00000-0 0   344
2 27715   2.9366  87.0141 0002109 230.3308  46.7756  1.00270273    10
GALAXY 12           [PM]
1 27715C 03013B   22039.57266204  .00000149  00000-0  00000-0 0   396
2 27715   2.9514  86.8802 0002319 249.1447 239.7609  1.00270040    14
GALAXY 23               
1 27854C 03034A   22030.95703704 -.00000012  00000-0  00000-0 0   308
2 27854   0.0077 302.8920 0002620  13.4199  37.3548  1.00270807    19
GALAXY 23               
1 27854C 03034A   22034.00000000  .00000103  00000-0  00000-0 0   341
2 27854   0.0704 267.9773 0002849  45.6911  58.4608  1.00269398    19
GALAXY 23           [PM]
1 27854C 03034A   22037.52222222  .00000103  00000-0  00000-0 0   376
2 27854   0.0631 265.9778 0003104  42.0063 255.6051  1.00271311    16
GALAXY 13               
1 27954C 03044A   22030.95703704  .00000138  00000-0  00000-0 0   308
2 27954   0.0226  92.8655 0000742 120.1271 134.6559  1.00270131    10
GALAXY 13               
1 27954C 03044A   22034.00000000  .00000138  00000-0  00000-0 0   341
2 27954   0.0071 107.4557 0000889 115.1824 143.4753  1.00271805    15
GALAXY 13           [PM]
1 27954C 03044A   22036.88938657  .00000139  00000-0  00000-0 0   360
2 27954   0.0097  86.8800 0002941 109.8840 132.3803  1.00270412    19
INTELSAT 10-02          
1 28358C 04022A   22031.00000000 -.00000066  00000-0  00000-0 0   312
2 28358   0.0565 258.6298 0000501  88.8516 141.6939  1.00268941    11
INTELSAT 10-02          
1 28358C 04022A   22034.00000000  .00000076  00000-0  00000-0 0   348
2 28358   0.0585 269.3773 0000652  63.1935 159.5509  1.00269623    17
GALAXY 28               
1 28702C 05022A   22031.00000000 -.00000086  00000-0  00000-0 0   318
2 28702   0.0252 323.1148 0002284  27.3089  50.7595  1.00269141    13
GALAXY 28               
1 28702C 05022A   22034.00000000 -.00000145  00000-0  00000-0 0   340
2 28702   0.0370 286.6032 0002183  56.8221  60.6861  1.00271163    15
GALAXY 28           [PM]
1 28702C 05022A   22034.17846065 -.00000176  00000-0  00000-0 0   341
2 28702   0.0109 351.5617 0002122 339.3712 137.6040  1.00273072    18
GALAXY 14               
1 28790C 05030A   22030.95703704  .00000246  00000-0  00000-0 0   304
2 28790   0.9201  93.7781 0001636 231.3203 182.4478  1.00271361    11
GALAXY 14               
1 28790C 05030A   22034.00000000  .00000246  00000-0  00000-0 0   347
2 28790   0.9253  93.7976 0001750 228.5765 203.6485  1.00273071    16
GALAXY 14           [PM]
1 28790C 05030A   22036.18750000  .00000246  00000-0  00000-0 0   362
2 28790   0.9294  93.6567 0002036 216.6552 285.3859  1.00268311    19
GALAXY 15               
1 28884C 05041A   22030.95703704  .00000169  00000-0  00000-0 0   304
2 28884   0.0029  39.2280 0001362 278.6839  23.7394  1.00270425    12
GALAXY 15               
1 28884C 05041A   22034.00000000  .00000042  00000-0  00000-0 0   347
2 28884   0.0187 315.6928 0001590 349.7439  54.6824  1.00269956    14
GALAXY 15           [PM]
1 28884C 05041A   22038.26793982  .00000168  00000-0  00000-0 0   380
2 28884   0.0454 283.9993 0002084  27.5258 149.2549  1.00273438    14
GALAXY 16               
1 29236C 06023A   22030.95703704 -.00000035  00000-0  00000-0 0   300
2 29236   0.0000 113.0476 0002652 215.2958  47.3081  1.00271263    19
GALAXY 16               
1 29236C 06023A   22034.00000000 -.00000034  00000-0  00000-0 0   342
2 29236   0.0038 122.2361 0002624 198.1945  73.6887  1.00277010    11
GALAXY 16           [PM]
1 29236C 06023A   22037.16660880 -.00000038  00000-0  00000-0 0   377
2 29236   0.0017 161.3464 0002846 152.4007 143.4697  1.00272191    14
GALAXY 17               
1 31307C 07016B   22030.95703704 -.00000084  00000-0  00000-0 0   309
2 31307   0.0215  75.9266 0002937 254.3185  53.4230  1.00271099    15
GALAXY 17               
1 31307C 07016B   22034.00000000 -.00000242  00000-0  00000-0 0   348
2 31307   0.0422 283.2828 0002919  29.7120  89.1267  1.00271685    13
GALAXY 17           [PM]
1 31307C 07016B   22040.98319444 -.00000084  00000-0  00000-0 0   408
2 31307   0.0153  58.4646 0003373 261.8503  82.6374  1.00273930    15
INTELSAT 11             
1 32253C 07044B   22030.95703704 -.00000292  00000-0  00000-0 0   302
2 32253   0.0000  78.1686 0001803 263.7448  89.7666  1.00269976    12
